     3.02           N: GNSS NAV DATA    G: GPS              RINEX VERSION / TYPE
Spider v7.5.1.8670  SMO                 20201130 000415 UTC PGM / RUN BY / DATE
GPSA   1.4901D-08 -1.4901D-08 -5.9605D-08  1.1921D-07       IONOSPHERIC CORR
GPSB   1.2083D+05 -2.2938D+05 -6.5536D+04  8.5197D+05       IONOSPHERIC CORR
GPUT  9.3132257462D-10 3.552713679D-15 233472 2134          TIME SYSTEM CORR
    18    18  1929     7                                    LEAP SECONDS
                                                            END OF HEADER
G31 2020 11 29 14 00 00-8.448399603367D-05-2.387423592154D-12 0.000000000000D+00
     6.700000000000D+01 5.653125000000D+01 4.260891639518D-09-2.189016044939D+00
     2.773478627205D-06 9.908300940879D-03 1.183710992336D-05 5.153708610535D+03
     5.040000000000D+04-1.862645149231D-09 2.853873132094D+00-1.806765794754D-07
     9.571034140789D-01 1.506875000000D+02 2.068509402862D-01-7.742465335525D-09
    -3.175132379241D-10 1.000000000000D+00 2.134000000000D+03 0.000000000000D+00
     2.000000000000D+00 0.000000000000D+00-1.303851604462D-08 6.700000000000D+01
     4.314000000000D+04                   
G32 2020 11 29 12 00 00 4.391651600599D-06 2.955857780762D-12 0.000000000000D+00
     4.700000000000D+01-2.012500000000D+01 5.050210472035D-09 7.387165001531D-01
    -9.983777999878D-07 4.277041298337D-03 5.621463060379D-06 5.153600254059D+03
     4.320000000000D+04 1.117587089539D-08 1.773672318240D+00 5.774199962616D-08
     9.565472257914D-01 2.695625000000D+02-2.466190004427D+00-8.285344854642D-09
    -4.918062068704D-10 1.000000000000D+00 2.134000000000D+03 0.000000000000D+00
     2.000000000000D+00 0.000000000000D+00 4.656612873077D-10 4.700000000000D+01
     3.594000000000D+04                   
